CUBEBEL-1 (BSUSAT-1)    
1 43666U 18083E   21224.29700590  .00001421  00000-0  69965-4 0  9995
2 43666  97.4528 251.9589 0013822 341.2729 151.4713 15.19551487154496
CICERO 10               
1 43690U 18088A   21223.89457581  .00001397  00000-0  60382-4 0  9997
2 43690  85.0407 161.0908 0013386 197.3535 162.7251 15.21415357152654
IRVINE01                
1 43693U 18088D   21224.23226343  .00003564  00000-0  13622-3 0  9991
2 43693  85.0367 157.8804 0016317 168.6749 191.4866 15.26101008152948
PROXIMA I               
1 43694U 18088E   21224.06461931  .00001277  00000-0  52127-4 0  9990
2 43694  85.0348 158.4507 0018788 167.8102 192.3599 15.23139029152835
PROXIMA II              
1 43696U 18088G   21224.06296194  .00001239  00000-0  50515-4 0  9996
2 43696  85.0350 158.4617 0018839 167.8066 192.3637 15.23134859152837
FACSAT-1                
1 43721U 18096C   21224.20682455  .00002728  00000-0  98500-4 0  9999
2 43721  97.3837 300.9265 0018160  75.7961 308.4020 15.29209267150648
CENTAURI-2              
1 43722U 18096D   21224.19568355  .00002918  00000-0  10138-3 0  9991
2 43722  97.3855 301.8307 0017784  74.5548 285.7655 15.30419449150687
INNOSAT-2               
1 43738U 18096V   21224.24489328  .00004924  00000-0  15031-3 0  9992
2 43738  97.3928 306.0048 0022176  73.9911 351.4105 15.34148793150958
SIRION PATHFINDER-2     
1 43759U 18099B   21223.85860457  .00000300  00000-0  32184-4 0  9993
2 43759  97.6609 293.2132 0013478 212.9284 147.1099 14.95562964146766
CORVUS BC4              
1 43767U 18099K   21223.89150033  .00000082  00000-0  12695-4 0  9990
2 43767  97.6585 292.1697 0010697 217.0138 143.0346 14.94987662146716
MOVE-II                 
1 43780U 18099Y   21224.19544436  .00000692  00000-0  66663-4 0  9994
2 43780  97.6636 293.7448 0012507 222.5316 137.4937 14.96020716146803
SPACEBEE-7              
1 43816U 18099BL  21223.46416249  .00000644  00000-0  62099-4 0  9999
2 43816  97.6652 293.6518 0012747 208.0595 151.9940 14.96206355146284
SPACEBEE-5              
1 43817U 18099BM  21224.15799247  .00001702  00000-0  15064-3 0  9994
2 43817  97.6758 295.7670 0012290 201.5474 158.5232 14.97543241146445
SPACEBEE-6              
1 43818U 18099BN  21223.14680926  .00001306  00000-0  11957-3 0  9993
2 43818  97.6686 293.7782 0012518 207.1928 152.8639 14.96611572146403
SHIELDS 1               
1 43850U 18104B   21224.14599248  .00000578  00000-0  23518-4 0  9990
2 43850  85.0266 257.0736 0013391 332.0900  27.9622 15.21975547147447
STF-1                   
1 43852U 18104D   21224.15724894  .00001359  00000-0  56600-4 0  9996
2 43852  85.0304 257.7267 0013267 347.6461  12.4454 15.22648648147435
ZACUBE-2                
1 43907U 18111AH  21224.16868418  .00000815  00000-0  34904-4 0  9996
2 43907  97.2268 116.4247 0022959  95.2589  57.4841 15.25310240146125
LUME 1                  
1 43908U 18111AJ  21224.18495135  .00001422  00000-0  56945-4 0  9995
2 43908  97.2264 117.1022 0022183  93.3693 267.0084 15.26436028146172
AOBA VELOX-IV           
1 43940U 19003J   21223.85740498  .00003080  00000-0  11555-3 0  9999
2 43940  97.1732 265.8643 0022696 167.6397 192.5405 15.27718197142763
UNITE                   
1 44031U 98067PX  21223.60942127  .00063100  00000-0  26349-3 0  9990
2 44031  51.6387 338.7151 0002510 313.5800  46.4995 15.85033551144406
RAAVANA-1               
1 44329U 98067QE  21224.09311949  .00092125  00000-0  36667-3 0  9999
2 44329  51.6339 356.2643 0001768 305.8482  54.2358 15.85884752122962
UGUISU                  
1 44330U 98067QF  21223.42476235  .00090220  00000-0  38041-3 0  9999
2 44330  51.6288   0.6820 0001097 295.5836  64.5054 15.84694502122820
NEPALISAT-1             
1 44331U 98067QG  21223.65270128  .00092446  00000-0  37297-3 0  9992
2 44331  51.6312 358.4613 0001569 300.5466  59.5382 15.85603120122884
SPOOQY-1                
1 44332U 98067QH  21223.84397295  .00074487  00000-0  32803-3 0  9992
2 44332  51.6326 359.0503 0001258 289.7741  70.3127 15.83854986122855
SPACEBEE-9              
1 44370U 19037F   21224.24020845  .00027207  00000-0  31974-3 0  9999
2 44370  44.9963 259.2466 0000917 156.4563 203.6375 15.61002194119899
MOVE-IIB                
1 44398U 19038N   21223.90209892  .00001777  00000-0  10123-3 0  9990
2 44398  97.5869 187.6790 0025693 116.4665 243.9206 15.13873009116153
SONATE                  
1 44400U 19038Q   21223.94965014  .00000937  00000-0  56982-4 0  9994
2 44400  97.5940 187.5547 0026278 116.9107 243.4813 15.12645415116125
LUCKY-7                 
1 44406U 19038W   21223.40919336  .00000798  00000-0  48592-4 0  9990
2 44406  97.5938 187.2925 0025641 117.7656 242.6179 15.13066602116050
BEESAT 9                
1 44412U 19038AC  21224.14301205  .00001039  00000-0  61541-4 0  9997
2 44412  97.5920 188.0656 0023571 119.9606 240.3969 15.13438260115871
JAISAT-1                
1 44419U 19038F   21223.89666880  .00001088  00000-0  63458-4 0  9991
2 44419  97.5922 188.4112 0022438 118.7942 241.5546 15.13922927116189
KRAKSAT                 
1 44427U 98067QM  21223.87414275  .00026763  00000-0  21928-3 0  9998
2 44427  51.6406  18.0744 0002272  93.6212  27.9631 15.70300214120177
VCC A                   
1 44428U 98067QN  21223.44773940  .00071922  00000-0  35270-3 0  9991
2 44428  51.6341   5.5741 0001096 318.3534  41.7384 15.81571633120302
ENTRYSAT                
1 44429U 98067QP  21222.50999637  .13114982  12639-4  26452-3 0  9996
2 44429  51.6073 351.2662 0008582 295.0172  64.9966 16.46454560120409
VCC B                   
1 44431U 98067QR  21223.43319281  .00080384  00000-0  37277-3 0  9999
2 44431  51.6304   4.5976 0001927 325.6902  34.3976 15.82727722120259
DUCHIFAT-3              
1 44854U 19089C   21224.06063618  .00000506  00000-0  46677-4 0  9998
2 44854  36.9656 131.7672 0008687 237.5216 122.4671 14.99569724 91452
EYESAT-NANO             
1 44877U 19092E   21224.24772598  .00001323  00000-0  67877-4 0  9994
2 44877  97.4621  47.1003 0013077   2.7195 357.4108 15.18226468 91403
ORBITAL FACTORY 2 (OF-2)
1 45113U 19071C   21224.09913271  .00002271  00000-0  74211-4 0  9996
2 45113  51.6415 127.6258 0012308 132.5001 227.7024 15.36179668 85723
M2 PATHFINDER           
1 45727U 20037E   21224.03749382  .00000242  00000-0  29716-4 0  9991
2 45727  97.7167  40.6568 0012843 349.1628  10.9322 14.91418006 60708
NETSAT-4                
1 46504U 20068U   21223.58926352 -.00000174  00000-0 -85613-5 0  9997
2 46504  97.6880 159.9930 0012602 303.0413  56.9619 15.02153136 47510
NETSAT-3                
1 46505U 20068V   21223.39750499 -.00000061  00000-0  34975-7 0  9995
2 46505  97.6910 159.7702 0010679 318.5592  41.4800 15.02131792 47493
NETSAT-1                
1 46506U 20068W   21223.53849346  .00000020  00000-0  61127-5 0  9993
2 46506  97.6954 159.8794 0008024 337.4211  22.6663 15.02108056 47511
NETSAT-2                
1 46507U 20068X   21223.54301702  .00000164  00000-0  17061-4 0  9990
2 46507  97.6954 159.8804 0006704 348.0664  12.0382 15.02086818 47463
SPOC                    
1 46921U 98067RR  21223.28050371  .00008738  00000-0  13259-3 0  9997
2 46921  51.6412  62.4091 0001328 278.9399  81.1442 15.55452920 43393
BOBCAT-1                
1 46922U 98067RS  21224.06033708  .00012745  00000-0  17496-3 0  9990
2 46922  51.6422  56.3935 0001154 286.2422  73.8443 15.57712378 43498
NEUTRON-1               
1 46923U 98067RT  21224.26434398  .00007935  00000-0  12155-3 0  9995
2 46923  51.6416  57.7269 0001305 306.1288  53.9582 15.55340380 43566
1998-067RU              
1 46924U 98067RU  21223.80679886  .00029800  00000-0  32579-3 0  9995
2 46924  51.6386  53.1502 0000984 322.8897  37.2029 15.63056670 43562
DESCENT                 
1 46927U 98067RX  21223.82000240  .00008454  00000-0  12908-3 0  9998
2 46927  51.6414  60.0056 0001507 333.6241  26.4673 15.55333141 43414
SAI-1 NANOCONNECT-2     
1 47701U 21015C   21224.00810579 -.00000071  00000-0  00000+0 0  9997
2 47701  97.4573 298.1717 0014159 101.8725 258.4267 15.22881657 25078
WARP-01                 
1 47924U 98067SA  21223.27749307  .00010634  00000-0  17363-3 0  9992
2 47924  51.6416  67.6111 0004000 311.7267  48.3381 15.53148182 23318
RSP-01                  
1 47925U 98067SB  21223.73884403  .00008271  00000-0  13886-3 0  9991
2 47925  51.6421  65.4515 0001741 225.8034 134.2813 15.52715064 23363
TAUSAT-1                
1 47926U 98067SC  21224.26559075  .00009591  00000-0  15521-3 0  9999
2 47926  51.6413  62.2164 0002811 233.7127 126.3604 15.53533642 23440
TSURU                   
1 47927U 98067SD  21223.94409116  .00007246  00000-0  12377-3 0  9995
2 47927  51.6422  64.5719 0001752 225.8343 134.2503 15.52443945 23392
STARS-EC                
1 47928U 98067SE  21224.12127531  .00010237  00000-0  16773-3 0  9993
2 47928  51.6418  63.4977 0004669 318.6895  41.3742 15.53096588 23408
MAYA-2                  
1 47929U 98067SF  21224.26295070  .00007015  00000-0  11993-3 0  9992
2 47929  51.6422  62.9513 0001867 223.7019 136.3824 15.52475827 23407
HIROGARI (OPUSAT-II)    
1 47930U 98067SG  21223.83369954  .00012051  00000-0  19289-3 0  9991
2 47930  51.6420  64.5869 0001942 214.9599 145.1264 15.53560689 23383
GUARANISAT-1            
1 47931U 98067SH  21224.26162207  .00007007  00000-0  11974-3 0  9990
2 47931  51.6426  62.9443 0001914 223.9288 136.1550 15.52492143 23447
SMOG-1                  
1 47964U 21022AJ  21223.53868146  .00001320  00000-0  91396-4 0  9996
2 47964  97.5524 124.8560 0021259 114.8251 245.5191 15.07196604 20177
MMSATS-1                
1 47976U 98067SJ  21223.88599820  .00003122  00000-0  62052-4 0  9999
2 47976  51.6483  66.4027 0001667 305.4615  54.6221 15.50276873 22144
BCCSAT-1                
1 48041U 21022AK  21223.98707812  .00000703  00000-0  51429-4 0  9991
2 48041  97.5534 125.2000 0017661 110.1856 250.1272 15.06644502 20212
